$$SOE
2459580.500000000, A.D. 2022-Jan-01 00:00:00.0000, 2.147702886475428E+09, -1.411493055935423E+09, -1.273261006835365E+09,
2459587.500000000, A.D. 2022-Jan-08 00:00:00.0000, 2.148829840968418E+09, -1.407473718124243E+09, -1.275188092402897E+09,
2459594.500000000, A.D. 2022-Jan-15 00:00:00.0000, 2.149952283875118E+09, -1.403451461937277E+09, -1.277112543027724E+09,
2459601.500000000, A.D. 2022-Jan-22 00:00:00.0000, 2.151070215561863E+09, -1.399426296318618E+09, -1.279034354371286E+09,
2459608.500000000, A.D. 2022-Jan-29 00:00:00.0000, 2.152183636988013E+09, -1.395398227750877E+09, -1.280953521995068E+09,
2459615.500000000, A.D. 2022-Feb-05 00:00:00.0000, 2.153292547498899E+09, -1.391367260926819E+09, -1.282870041212867E+09,
2459622.500000000, A.D. 2022-Feb-12 00:00:00.0000, 2.154396944792103E+09, -1.387333400489244E+09, -1.284783907228109E+09,
2459629.500000000, A.D. 2022-Feb-19 00:00:00.0000, 2.155496825732269E+09, -1.383296651470116E+09, -1.286695115241202E+09,
2459636.500000000, A.D. 2022-Feb-26 00:00:00.0000, 2.156592186703089E+09, -1.379257019151935E+09, -1.288603660465925E+09,
2459643.500000000, A.D. 2022-Mar-05 00:00:00.0000, 2.157683023655747E+09, -1.375214508968217E+09, -1.290509538120109E+09,
2459650.500000000, A.D. 2022-Mar-12 00:00:00.0000, 2.158769332075629E+09, -1.371169126508731E+09, -1.292412743416636E+09,
2459657.500000000, A.D. 2022-Mar-19 00:00:00.0000, 2.159851106938350E+09, -1.367120877601290E+09, -1.294313271559260E+09,
2459664.500000000, A.D. 2022-Mar-26 00:00:00.0000, 2.160928342677529E+09, -1.363069768475875E+09, -1.296211117746099E+09,
2459671.500000000, A.D. 2022-Apr-02 00:00:00.0000, 2.162001033232091E+09, -1.359015806066673E+09, -1.298106277191838E+09,
2459678.500000000, A.D. 2022-Apr-09 00:00:00.0000, 2.163069172445148E+09, -1.354958998447013E+09, -1.299998745193423E+09,
2459685.500000000, A.D. 2022-Apr-16 00:00:00.0000, 2.164132755171612E+09, -1.350899354742868E+09, -1.301888517218749E+09,
2459692.500000000, A.D. 2022-Apr-23 00:00:00.0000, 2.165191777825651E+09, -1.346836883440491E+09, -1.303775588813456E+09,
2459699.500000000, A.D. 2022-Apr-30 00:00:00.0000, 2.166246236497840E+09, -1.342771591333273E+09, -1.305659955337908E+09,
2459706.500000000, A.D. 2022-May-07 00:00:00.0000, 2.167296125704747E+09, -1.338703485081294E+09, -1.307541611976577E+09,
2459713.500000000, A.D. 2022-May-14 00:00:00.0000, 2.168341439160309E+09, -1.334632572345258E+09, -1.309420553899073E+09,
2459720.500000000, A.D. 2022-May-21 00:00:00.0000, 2.169382170537955E+09, -1.330558861736038E+09, -1.311296776324496E+09,
2459727.500000000, A.D. 2022-May-28 00:00:00.0000, 2.170418313744650E+09, -1.326482362538511E+09, -1.313170274523526E+09,
2459734.500000000, A.D. 2022-Jun-04 00:00:00.0000, 2.171449862983998E+09, -1.322403084522432E+09, -1.315041043809239E+09,
2459741.500000000, A.D. 2022-Jun-11 00:00:00.0000, 2.172476812753105E+09, -1.318321037837985E+09, -1.316909079529659E+09,
2459748.500000000, A.D. 2022-Jun-18 00:00:00.0000, 2.173499157811921E+09, -1.314236232982555E+09, -1.318774377064480E+09,
2459755.500000000, A.D. 2022-Jun-25 00:00:00.0000, 2.174516893154553E+09, -1.310148680871651E+09, -1.320636931831276E+09,
2459762.500000000, A.D. 2022-Jul-02 00:00:00.0000, 2.175530014116611E+09, -1.306058393079459E+09, -1.322496739318758E+09,
2459769.500000000, A.D. 2022-Jul-09 00:00:00.0000, 2.176538517008894E+09, -1.301965382071840E+09, -1.324353795168304E+09,
2459776.500000000, A.D. 2022-Jul-16 00:00:00.0000, 2.177542400222290E+09, -1.297869660348795E+09, -1.326208095210043E+09,
2459783.500000000, A.D. 2022-Jul-23 00:00:00.0000, 2.178541663605468E+09, -1.293771238418581E+09, -1.328059635245313E+09,
2459790.500000000, A.D. 2022-Jul-30 00:00:00.0000, 2.179536306199491E+09, -1.289670124957358E+09, -1.329908410857088E+09,
2459797.500000000, A.D. 2022-Aug-06 00:00:00.0000, 2.180526325928076E+09, -1.285566328506240E+09, -1.331754417525265E+09,
2459804.500000000, A.D. 2022-Aug-13 00:00:00.0000, 2.181511720420347E+09, -1.281459857951277E+09, -1.333597650745970E+09,
2459811.500000000, A.D. 2022-Aug-20 00:00:00.0000, 2.182492487396703E+09, -1.277350722289766E+09, -1.335438106051826E+09,
2459818.500000000, A.D. 2022-Aug-27 00:00:00.0000, 2.183468624685965E+09, -1.273238930409477E+09, -1.337275778998580E+09,
2459825.500000000, A.D. 2022-Sep-03 00:00:00.0000, 2.184440130121707E+09, -1.269124490991315E+09, -1.339110665149673E+09,
2459832.500000000, A.D. 2022-Sep-10 00:00:00.0000, 2.185407001407895E+09, -1.265007412511516E+09, -1.340942760064954E+09,
2459839.500000000, A.D. 2022-Sep-17 00:00:00.0000, 2.186369235983212E+09, -1.260887703345106E+09, -1.342772059296298E+09,
2459846.500000000, A.D. 2022-Sep-24 00:00:00.0000, 2.187326830944544E+09, -1.256765372021507E+09, -1.344598558399883E+09,
2459853.500000000, A.D. 2022-Oct-01 00:00:00.0000, 2.188279783269568E+09, -1.252640427654585E+09, -1.346422252989059E+09,
2459860.500000000, A.D. 2022-Oct-08 00:00:00.0000, 2.189228090745772E+09, -1.248512880025058E+09, -1.348243138822677E+09,
2459867.500000000, A.D. 2022-Oct-15 00:00:00.0000, 2.190171752674065E+09, -1.244382738116092E+09, -1.350061211745673E+09,
2459874.500000000, A.D. 2022-Oct-22 00:00:00.0000, 2.191110768165380E+09, -1.240250008785962E+09, -1.351876467419646E+09,
2459881.500000000, A.D. 2022-Oct-29 00:00:00.0000, 2.192045134528102E+09, -1.236114698171285E+09, -1.353688901284789E+09,
2459888.500000000, A.D. 2022-Nov-05 00:00:00.0000, 2.192974847845622E+09, -1.231976813079657E+09, -1.355498508721995E+09,
2459895.500000000, A.D. 2022-Nov-12 00:00:00.0000, 2.193899903779196E+09, -1.227836361104484E+09, -1.357305285131585E+09,
2459902.500000000, A.D. 2022-Nov-19 00:00:00.0000, 2.194820297876744E+09, -1.223693350416119E+09, -1.359109225940857E+09,
2459909.500000000, A.D. 2022-Nov-26 00:00:00.0000, 2.195736025649794E+09, -1.219547789626633E+09, -1.360910326597112E+09,
2459916.500000000, A.D. 2022-Dec-03 00:00:00.0000, 2.196647082584609E+09, -1.215399687739744E+09, -1.362708582562433E+09,
2459923.500000000, A.D. 2022-Dec-10 00:00:00.0000, 2.197553464133023E+09, -1.211249054167227E+09, -1.364503989312920E+09,
2459930.500000000, A.D. 2022-Dec-17 00:00:00.0000, 2.198455165707708E+09, -1.207095898836784E+09, -1.366296542346685E+09,
2459937.500000000, A.D. 2022-Dec-24 00:00:00.0000, 2.199352182791249E+09, -1.202940232457215E+09, -1.368086237216026E+09,
2459944.500000000, A.D. 2022-Dec-31 00:00:00.0000, 2.200244511516672E+09, -1.198782066833379E+09, -1.369873069607732E+09,
2459951.500000000, A.D. 2023-Jan-07 00:00:00.0000, 2.201132149842134E+09, -1.194621414268544E+09, -1.371657035404081E+09,
2459958.500000000, A.D. 2023-Jan-14 00:00:00.0000, 2.202015097352765E+09, -1.190458285557338E+09, -1.373438130503451E+09,
2459965.500000000, A.D. 2023-Jan-21 00:00:00.0000, 2.202893353044903E+09, -1.186292689741907E+09, -1.375216350600584E+09,
2459972.500000000, A.D. 2023-Jan-28 00:00:00.0000, 2.203766914760728E+09, -1.182124635826797E+09, -1.376991691278861E+09,
2459979.500000000, A.D. 2023-Feb-04 00:00:00.0000, 2.204635780064745E+09, -1.177954133424809E+09, -1.378764148147946E+09,
2459986.500000000, A.D. 2023-Feb-11 00:00:00.0000, 2.205499946766910E+09, -1.173781192527346E+09, -1.380533716877853E+09,
2459993.500000000, A.D. 2023-Feb-18 00:00:00.0000, 2.206359413029197E+09, -1.169605823222317E+09, -1.382300393190797E+09,
2460000.500000000, A.D. 2023-Feb-25 00:00:00.0000, 2.207214177318537E+09, -1.165428035521190E+09, -1.384064172847996E+09,
2460007.500000000, A.D. 2023-Mar-04 00:00:00.0000, 2.208064238308459E+09, -1.161247839276181E+09, -1.385825051639136E+09,
2460014.500000000, A.D. 2023-Mar-11 00:00:00.0000, 2.208909594758259E+09, -1.157065244186812E+09, -1.387583025376867E+09,
2460021.500000000, A.D. 2023-Mar-18 00:00:00.0000, 2.209750245416944E+09, -1.152880259945098E+09, -1.389338089904500E+09,
2460028.500000000, A.D. 2023-Mar-25 00:00:00.0000, 2.210586189155474E+09, -1.148692896566300E+09, -1.391090241139190E+09,
2460035.500000000, A.D. 2023-Apr-01 00:00:00.0000, 2.211417425751995E+09, -1.144503164511643E+09, -1.392839475157169E+09,
2460042.500000000, A.D. 2023-Apr-08 00:00:00.0000, 2.212243956714834E+09, -1.140311073377796E+09, -1.394585788164279E+09,
2460049.500000000, A.D. 2023-Apr-15 00:00:00.0000, 2.213065783806368E+09, -1.136116630259140E+09, -1.396329176227669E+09,
2460056.500000000, A.D. 2023-Apr-22 00:00:00.0000, 2.213882907077046E+09, -1.131919840834641E+09, -1.398069635183891E+09,
2460063.500000000, A.D. 2023-Apr-29 00:00:00.0000, 2.214695325144651E+09, -1.127720710926383E+09, -1.399807160790123E+09,
2460070.500000000, A.D. 2023-May-06 00:00:00.0000, 2.215503035958656E+09, -1.123519246748508E+09, -1.401541748811529E+09,
2460077.500000000, A.D. 2023-May-13 00:00:00.0000, 2.216306037072897E+09, -1.119315454740017E+09, -1.403273395028279E+09,
2460084.500000000, A.D. 2023-May-20 00:00:00.0000, 2.217104325660757E+09, -1.115109341472417E+09, -1.405002095224039E+09,
2460091.500000000, A.D. 2023-May-27 00:00:00.0000, 2.217897898466364E+09, -1.110900913661571E+09, -1.406727845176286E+09,
2460098.500000000, A.D. 2023-Jun-03 00:00:00.0000, 2.218686751749393E+09, -1.106690178257699E+09, -1.408450640651900E+09,
2460105.500000000, A.D. 2023-Jun-10 00:00:00.0000, 2.219470881247264E+09, -1.102477142627222E+09, -1.410170477411607E+09,
2460112.500000000, A.D. 2023-Jun-17 00:00:00.0000, 2.220250282243784E+09, -1.098261814886492E+09, -1.411887351236633E+09,
2460119.500000000, A.D. 2023-Jun-24 00:00:00.0000, 2.221024950064201E+09, -1.094044204331749E+09, -1.413601258002630E+09,
2460126.500000000, A.D. 2023-Jul-01 00:00:00.0000, 2.221794881249834E+09, -1.089824321137136E+09, -1.415312193756622E+09,
2460133.500000000, A.D. 2023-Jul-08 00:00:00.0000, 2.222560073738279E+09, -1.085602174498667E+09, -1.417020154576444E+09,
2460140.500000000, A.D. 2023-Jul-15 00:00:00.0000, 2.223320524772451E+09, -1.081377772053893E+09, -1.418725136326916E+09,
$$EOE